{
  "type": "FeatureCollection",
  "features": [
    {
      "type": "Feature",
      "properties": {
        "nombre": "Conjunto Arqueológico de Itálica (Santiponce)",
        "categoria": "BIC",
        "epoca": "Todas"
      },
      "geometry": {
        "type": "Polygon",
        "coordinates": [
          [
            [-6.0520, 37.4500],
            [-6.0460, 37.4510],
            [-6.0400, 37.4480],
            [-6.0380, 37.4440],
            [-6.0400, 37.4390],
            [-6.0450, 37.4370],
            [-6.0500, 37.4390],
            [-6.0540, 37.4430],
            [-6.0520, 37.4500]
          ]
        ]
      }
    },
    {
      "type": "Feature",
      "properties": {
        "nombre": "Castillo de Alcalá de Guadaíra",
        "categoria": "BIC",
        "epoca": "Todas"
      },
      "geometry": {
        "type": "Polygon",
        "coordinates": [
          [
            [-5.8420, 37.3410],
            [-5.8360, 37.3420],
            [-5.8310, 37.3390],
            [-5.8300, 37.3340],
            [-5.8330, 37.3310],
            [-5.8390, 37.3310],
            [-5.8430, 37.3350],
            [-5.8420, 37.3410]
          ]
        ]
      }
    },
    {
      "type": "Feature",
      "properties": {
        "nombre": "Necrópolis Romana de Carmona",
        "categoria": "BIC",
        "epoca": "Todas"
      },
      "geometry": {
        "type": "Polygon",
        "coordinates": [
          [
            [-6.0520, 37.4500],
            [-6.0460, 37.4510],
            [-6.0400, 37.4480],
            [-6.0380, 37.4440],
            [-6.0400, 37.4390],
            [-6.0450, 37.4370],
            [-6.0500, 37.4390],
            [-6.0540, 37.4430],
            [-6.0520, 37.4500]
          ]
        ]
      }
    },
    {
      "type": "Feature",
      "properties": {
        "nombre": "Baelo Claudia (Tarifa)",
        "categoria": "BIC",
        "epoca": "Todas"
      },
      "geometry": {
        "type": "Polygon",
        "coordinates": [
          [
            [-5.7820, 36.0920],
            [-5.7740, 36.0930],
            [-5.7680, 36.0880],
            [-5.7690, 36.0810],
            [-5.7750, 36.0790],
            [-5.7810, 36.0820],
            [-5.7840, 36.0870],
            [-5.7820, 36.0920]
          ]
        ]
      }
    },
    {
      "type": "Feature",
      "properties": {
        "nombre": "Yacimiento de Doña Blanca (Puerto de Santa María)",
        "categoria": "BIC",
        "epoca": "Todas"
      },
      "geometry": {
        "type": "Polygon",
        "coordinates": [
          [
            [-6.1660, 36.6300],
            [-6.1580, 36.6310],
            [-6.1520, 36.6260],
            [-6.1530, 36.6210],
            [-6.1590, 36.6190],
            [-6.1650, 36.6220],
            [-6.1680, 36.6260],
            [-6.1660, 36.6300]
          ]
        ]
      }
    },
    {
      "type": "Feature",
      "properties": {
        "nombre": "Asentamiento de Setefilla (Mesa de Setefilla)",
        "categoria": "ASENTAMIENTO",
        "epoca": "Prerromano"
      },
      "geometry": {
        "type": "Point",
        "coordinates": [-5.4950, 37.7080]
      }
    },
    {
      "type": "Feature",
      "properties": {
        "nombre": "Oppidum de Osuna (Urso)",
        "categoria": "ASENTAMIENTO",
        "epoca": "Prerromano"
      },
      "geometry": {
        "type": "Point",
        "coordinates": [-5.1050, 37.2380]
      }
    },
    {
      "type": "Feature",
      "properties": {
        "nombre": "Villa Romana de Fuente Álamo (Puente Genil)",
        "categoria": "ASENTAMIENTO",
        "epoca": "Hispania Romana"
      },
      "geometry": {
        "type": "Point",
        "coordinates": [-4.7300, 37.4080]
      }
    },
    {
      "type": "Feature",
      "properties": {
        "nombre": "Asta Regia (Mesas de Asta)",
        "categoria": "ASENTAMIENTO",
        "epoca": "Hispania Romana"
      },
      "geometry": {
        "type": "Point",
        "coordinates": [-6.1550, 36.7570]
      }
    },
    {
      "type": "Feature",
      "properties": {
        "nombre": "Medina de Peñaflor (Celti)",
        "categoria": "ASENTAMIENTO",
        "epoca": "Al-Ándalus"
      },
      "geometry": {
        "type": "Point",
        "coordinates": [-5.3450, 37.7070]
      }
    },
    {
      "type": "Feature",
      "properties": {
        "nombre": "Basílica de Vega del Mar (San Pedro Alcántara)",
        "categoria": "ASENTAMIENTO",
        "epoca": "Reino Visigodo"
      },
      "geometry": {
        "type": "Point",
        "coordinates": [-4.9850, 36.4760]
      }
    }
  ]
}
{
  "type": "FeatureCollection",
  "features": [
    {
      "type": "Feature",
      "properties": {
        "nombre": "Ciudad Califal de Medina Azahara (Córdoba)",
        "categoria": "BIC",
        "epoca": "Todas"
      },
      "geometry": {
        "type": "Polygon",
        "coordinates": [
          [
            [-4.8720, 37.8900],
            [-4.8650, 37.8920],
            [-4.8580, 37.8890],
            [-4.8560, 37.8840],
            [-4.8590, 37.8800],
            [-4.8660, 37.8790],
            [-4.8730, 37.8820],
            [-4.8750, 37.8860],
            [-4.8720, 37.8900]
          ]
        ]
      }
    },
    {
      "type": "Feature",
      "properties": {
        "nombre": "Zona Arqueológica de Cástulo (Linares, Jaén)",
        "categoria": "BIC",
        "epoca": "Todas"
      },
      "geometry": {
        "type": "Polygon",
        "coordinates": [
          [
            [-3.6450, 38.0950],
            [-3.6350, 38.0980],
            [-3.6250, 38.0930],
            [-3.6220, 38.0870],
            [-3.6280, 38.0810],
            [-3.6370, 38.0800],
            [-3.6460, 38.0840],
            [-3.6490, 38.0900],
            [-3.6450, 38.0950]
          ]
        ]
      }
    },
    {
      "type": "Feature",
      "properties": {
        "nombre": "Conjunto Monumental de la Alhambra y Generalife (Granada)",
        "categoria": "BIC",
        "epoca": "Todas"
      },
      "geometry": {
        "type": "Polygon",
        "coordinates": [
          [
            [-3.6020, 37.1810],
            [-3.5930, 37.1830],
            [-3.5850, 37.1780],
            [-3.5830, 37.1720],
            [-3.5880, 37.1670],
            [-3.5970, 37.1660],
            [-3.6050, 37.1700],
            [-3.6070, 37.1760],
            [-3.6020, 37.1810]
          ]
        ]
      }
    },
    {
      "type": "Feature",
      "properties": {
        "nombre": "Zona Arqueológica de Los Millares (Santa Fe de Mondújar, Almería)",
        "categoria": "BIC",
        "epoca": "Todas"
      },
      "geometry": {
        "type": "Polygon",
        "coordinates": [
          [
            [-2.5720, 36.9600],
            [-2.5640, 36.9620],
            [-2.5570, 36.9580],
            [-2.5550, 36.9520],
            [-2.5600, 36.9470],
            [-2.5680, 36.9460],
            [-2.5750, 36.9500],
            [-2.5770, 36.9550],
            [-2.5720, 36.9600]
          ]
        ]
      }
    },
    {
      "type": "Feature",
      "properties": {
        "nombre": "Alcazaba y Teatro Romano de Málaga",
        "categoria": "BIC",
        "epoca": "Todas"
      },
      "geometry": {
        "type": "Polygon",
        "coordinates": [
          [
            [-4.4200, 36.7250],
            [-4.4140, 36.7260],
            [-4.4100, 36.7230],
            [-4.4090, 36.7190],
            [-4.4130, 36.7150],
            [-4.4190, 36.7150],
            [-4.4230, 36.7180],
            [-4.4240, 36.7220],
            [-4.4200, 36.7250]
          ]
        ]
      }
    },
    {
      "type": "Feature",
      "properties": {
        "nombre": "Oppidum Ibérico de Úbeda la Vieja (Salvatierra)",
        "categoria": "ASENTAMIENTO",
        "epoca": "Prerromano"
      },
      "geometry": {
        "type": "Point",
        "coordinates": [-3.4550, 38.0850]
      }
    },
    {
      "type": "Feature",
      "properties": {
        "nombre": "Ciudad Romana de Augusta Firma (Écija)",
        "categoria": "ASENTAMIENTO",
        "epoca": "Hispania Romana"
      },
      "geometry": {
        "type": "Point",
        "coordinates": [-5.0820, 37.5440]
      }
    },
    {
      "type": "Feature",
      "properties": {
        "nombre": "Madínat Ilbīra (Medina Elvira, Granada)",
        "categoria": "ASENTAMIENTO",
        "epoca": "Al-Ándalus"
      },
      "geometry": {
        "type": "Point",
        "coordinates": [-3.7350, 37.2550]
      }
    },
    {
      "type": "Feature",
      "properties": {
        "nombre": "Yacimiento Fenopúnico del Cerro del Villar (Málaga)",
        "categoria": "ASENTAMIENTO",
        "epoca": "Prerromano"
      },
      "geometry": {
        "type": "Point",
        "coordinates": [-4.4850, 36.6850]
      }
    }
  ]
}
{
  "type": "FeatureCollection",
  "features": [
    {
      "type": "Feature",
      "properties": {
        "nombre": "Castillo de Almodóvar del Río (Córdoba)",
        "categoria": "BIC",
        "epoca": "Todas"
      },
      "geometry": {
        "type": "Polygon",
        "coordinates": [
          [
            [-5.0300, 37.8150],
            [-5.0230, 37.8170],
            [-5.0180, 37.8130],
            [-5.0160, 37.8080],
            [-5.0200, 37.8040],
            [-5.0270, 37.8030],
            [-5.0330, 37.8070],
            [-5.0340, 37.8120],
            [-5.0300, 37.8150]
          ]
        ]
      }
    },
    {
      "type": "Feature",
      "properties": {
        "nombre": "Murallas y Castillo de Niebla (Huelva)",
        "categoria": "BIC",
        "epoca": "Todas"
      },
      "geometry": {
        "type": "Polygon",
        "coordinates": [
          [
            [-6.7120, 37.3650],
            [-6.7040, 37.3670],
            [-6.6970, 37.3620],
            [-6.6960, 37.3560],
            [-6.7010, 37.3510],
            [-6.7090, 37.3500],
            [-6.7150, 37.3540],
            [-6.7160, 37.3600],
            [-6.7120, 37.3650]
          ]
        ]
      }
    },
    {
      "type": "Feature",
      "properties": {
        "nombre": "Yacimiento Arqueológico de El Argar (Antas, Almería)",
        "categoria": "BIC",
        "epoca": "Todas"
      },
      "geometry": {
        "type": "Polygon",
        "coordinates": [
          [
            [-2.0120, 37.2550],
            [-2.0040, 37.2570],
            [-1.9970, 37.2520],
            [-1.9950, 37.2470],
            [-2.0000, 37.2420],
            [-2.0080, 37.2410],
            [-2.0140, 37.2450],
            [-2.0150, 37.2500],
            [-2.0120, 37.2550]
          ]
        ]
      }
    },
    {
      "type": "Feature",
      "properties": {
        "nombre": "Sitio de los Dólmenes de Antequera (Málaga)",
        "categoria": "BIC",
        "epoca": "Todas"
      },
      "geometry": {
        "type": "Polygon",
        "coordinates": [
          [
            [-4.5520, 37.0250],
            [-4.5450, 37.0270],
            [-4.5380, 37.0220],
            [-4.5360, 37.0170],
            [-4.5410, 37.0120],
            [-4.5490, 37.0110],
            [-4.5550, 37.0150],
            [-4.5560, 37.0200],
            [-4.5520, 37.0250]
          ]
        ]
      }
    },
    {
      "type": "Feature",
      "properties": {
        "nombre": "Yacimiento Fenicio del Cerro Salomón (Riotinto)",
        "categoria": "ASENTAMIENTO",
        "epoca": "Prerromano"
      },
      "geometry": {
        "type": "Point",
        "coordinates": [-6.5850, 37.6950]
      }
    },
    {
      "type": "Feature",
      "properties": {
        "nombre": "Enclave Minero-Industrial Romano (Cerro Muriano)",
        "categoria": "ASENTAMIENTO",
        "epoca": "Hispania Romana"
      },
      "geometry": {
        "type": "Point",
        "coordinates": [-4.7850, 37.9550]
      }
    },
    {
      "type": "Feature",
      "properties": {
        "nombre": "Yacimiento Visigodo de El Germo (Espiel)",
        "categoria": "ASENTAMIENTO",
        "epoca": "Reino Visigodo"
      },
      "geometry": {
        "type": "Point",
        "coordinates": [-5.0250, 38.1500]
      }
    },
    {
      "type": "Feature",
      "properties": {
        "nombre": "Castillo de Baños de la Encina (Burgalimar)",
        "categoria": "ASENTAMIENTO",
        "epoca": "Al-Ándalus"
      },
      "geometry": {
        "type": "Point",
        "coordinates": [-3.7850, 38.1650]
      }
    }
  ]
}
